STARLINK-5748           
1 55604U 23020AM  26176.79327169  .00000818  00000+0  39240-4 0  9991
2 55604  43.0035  88.8925 0000903 250.0808 109.9947 15.27577928185749
STARLINK-5725           
1 55605U 23020AN  26176.86200385  .00000802  00000+0  38653-4 0  9990
2 55605  43.0051 103.2654 0001299 261.2833  98.7872 15.27576526185587
STARLINK-5700           
1 55607U 23020AQ  26176.87613403  .00000467  00000+0  26502-4 0  9999
2 55607  43.0030 103.3699 0001332 261.8853  98.1847 15.27580753185585
STARLINK-5726           
1 55608U 23020AR  26176.81460528  .00000186  00000+0  16300-4 0  9995
2 55608  43.0019 103.7627 0001462 255.2765 104.7925 15.27576611185579
STARLINK-5719           
1 55609U 23020AS  26176.80689574  .00000057  00000+0  11611-4 0  9996
2 55609  43.0034 103.7110 0001517 264.7886  95.2792 15.27577305185571
STARLINK-5722           
1 55610U 23020AT  26176.49538230  .00000372  00000+0  23037-4 0  9990
2 55610  43.0029 105.6628 0000780 257.5663 102.5102 15.27578667185520
STARLINK-5730           
1 55611U 23020AU  26176.50180988 -.00000838  00000+0 -20938-4 0  9992
2 55611  43.0024 105.7049 0000743 249.0663 111.0109 15.27582933185522
STARLINK-5734           
1 55612U 23020AV  26176.50566372  .00000000  00000+0  95125-5 0  9998
2 55612  43.0052 105.7477 0000597 243.8232 116.2559 15.27577208185525
STARLINK-5714           
1 55614U 23020AX  26176.79968132 -.00000016  00000+0  89417-5 0  9996
2 55614  43.0051  88.9007 0001200 266.6806  93.3909 15.27577369185745
STARLINK-5712           
1 55615U 23020AY  26176.84272737 -.00000419  00000+0 -56964-5 0  9991
2 55615  43.0048 103.1207 0001269 271.1538  88.9168 15.27576250185589
STARLINK-5710           
1 55616U 23020AZ  26176.85300663  .00001166  00000+0  51883-4 0  9995
2 55616  43.0053 103.1969 0001233 271.2611  88.8100 15.27577614185585
STARLINK-5721           
1 55617U 23020BA  26176.84659819  .00003321  00000+0  13024-3 0  9994
2 55617  43.0091 103.1486 0001484 287.5372  72.5318 15.27557417185584
STARLINK-5717           
1 55618U 23020BB  26176.85685843 -.00000782  00000+0 -18878-4 0  9995
2 55618  43.0033 103.2233 0001454 254.9411 105.1280 15.27589545185589
STARLINK-5720           
1 55619U 23020BC  26176.86071698  .00000076  00000+0  12308-4 0  9990
2 55619  43.0045 103.2482 0001600 274.6616  85.4053 15.27577256185571
STARLINK-5718           
1 55620U 23020BD  26176.86457118  .00000077  00000+0  12325-4 0  9997
2 55620  43.0053 103.2795 0001651 268.2968  91.7695 15.27577416185585
STARLINK-5709           
1 55621U 23020BE  26176.84915289  .00000105  00000+0  13330-4 0  9993
2 55621  43.0055 103.1671 0001496 279.6080  80.4602 15.27576939185580
STARLINK-5702           
1 55622U 23020BF  26176.86843219  .00000074  00000+0  12235-4 0  9997
2 55622  43.0045 103.3073 0001420 266.5403  93.5286 15.27576783185589
STARLINK-5698           
1 55623U 23020BG  26176.80560627 -.00000045  00000+0  79065-5 0  9995
2 55623  43.0031 103.6945 0001719 265.4239  94.6417 15.27581669  8998
STARLINK-5484           
1 55628U 23021A   26176.75766792  .00000147  00000+0  20117-4 0  9991
2 55628  69.9992 292.0621 0003334 269.3001  90.7776 14.98336096184488
STARLINK-5497           
1 55629U 23021B   26176.76184174 -.00000051  00000+0  35110-5 0  9996
2 55629  69.9976 292.0760 0003966 276.7285  83.3422 14.98333701184488
STARLINK-5303           
1 55630U 23021C   26176.75349530  .00000703  00000+0  66685-4 0  9999
2 55630  69.9995 292.0465 0002999 270.5552  89.5264 14.98334446184486
STARLINK-5558           
1 55631U 23021D   26176.66169123  .00000390  00000+0  40475-4 0  9999
2 55631  70.0002 292.1268 0003138 269.2954  90.7846 14.98333231184478
STARLINK-5546           
1 55632U 23021E   26176.67840519  .00000248  00000+0  28585-4 0  9996
2 55632  70.0000 292.1854 0003145 268.8357  91.2441 14.98328522184472
STARLINK-5498           
1 55633U 23021F   26176.67421396  .00000353  00000+0  37396-4 0  9992
2 55633  69.9993 292.1695 0003495 268.8577  91.2181 14.98332637184479
STARLINK-5500           
1 55634U 23021G   26176.67855372  .00000926  00000+0  85354-4 0  9991
2 55634  69.9994 292.1852 0003217 270.5672  89.5119 14.98333368184466
STARLINK-5495           
1 55635U 23021H   26176.65729220  .00000605  00000+0  58480-4 0  9996
2 55635  69.9991 272.2419 0003323 270.2756  89.8022 14.98334671184969
STARLINK-5218           
1 55636U 23021J   26176.73262617  .00000157  00000+0  20987-4 0  9991
2 55636  70.0000 291.9732 0003158 268.8712  91.2086 14.98331637184484
STARLINK-5062           
1 55637U 23021K   26176.67398973  .00000417  00000+0  42723-4 0  9991
2 55637  69.9992 272.2985 0003418 269.0811  90.9957 14.98332991184966
STARLINK-5507           
1 55638U 23021L   26176.67004005  .00000665  00000+0  63496-4 0  9997
2 55638  69.9995 292.1557 0003173 266.5191  93.5605 14.98334238184478
STARLINK-5508           
1 55639U 23021M   26176.65329840  .00001946  00000+0  17091-3 0  9995
2 55639  69.9985 272.2245 0003394 257.9356 102.1423 14.98321074184966
