OBJECT_NAME,OBJECT_ID,EPOCH,MEAN_MOTION,ECCENTRICITY,INCLINATION,RA_OF_ASC_NODE,ARG_OF_PERICENTER,MEAN_ANOMALY,EPHEMERIS_TYPE,CLASSIFICATION_TYPE,NORAD_CAT_ID,ELEMENT_SET_NO,REV_AT_EPOCH,BSTAR,MEAN_MOTION_DOT,MEAN_MOTION_DDOT
STARLINK-5748,2023-020AM,2026-06-25T19:02:18.674016,15.27577928,.0000903,43.0035,88.8925,250.0808,109.9947,0,U,55604,999,18574,.3924E-4,.818E-5,0
STARLINK-5725,2023-020AN,2026-06-25T20:41:17.132640,15.27576526,.0001299,43.0051,103.2654,261.2833,98.7872,0,U,55605,999,18558,.38653E-4,.802E-5,0
STARLINK-5700,2023-020AQ,2026-06-25T21:01:37.980192,15.27580753,.0001332,43.0030,103.3699,261.8853,98.1847,0,U,55607,999,18558,.26502E-4,.467E-5,0
STARLINK-5726,2023-020AR,2026-06-25T19:33:01.896192,15.27576611,.0001462,43.0019,103.7627,255.2765,104.7925,0,U,55608,999,18557,.163E-4,.186E-5,0
STARLINK-5719,2023-020AS,2026-06-25T19:21:55.791936,15.27577305,.0001517,43.0034,103.7110,264.7886,95.2792,0,U,55609,999,18557,.11611E-4,.57E-6,0
STARLINK-5722,2023-020AT,2026-06-25T11:53:21.030720,15.27578667,.000078,43.0029,105.6628,257.5663,102.5102,0,U,55610,999,18552,.23037E-4,.372E-5,0
STARLINK-5730,2023-020AU,2026-06-25T12:02:36.373632,15.27582933,.0000743,43.0024,105.7049,249.0663,111.0109,0,U,55611,999,18552,-.20938E-4,-.838E-5,0
STARLINK-5734,2023-020AV,2026-06-25T12:08:09.345408,15.27577208,.0000597,43.0052,105.7477,243.8232,116.2559,0,U,55612,999,18552,.95125E-5,0,0
STARLINK-5714,2023-020AX,2026-06-25T19:11:32.466048,15.27577369,.00012,43.0051,88.9007,266.6806,93.3909,0,U,55614,999,18574,.89417E-5,-.16E-6,0
STARLINK-5712,2023-020AY,2026-06-25T20:13:31.644768,15.27576250,.0001269,43.0048,103.1207,271.1538,88.9168,0,U,55615,999,18558,-.56964E-5,-.419E-5,0
STARLINK-5710,2023-020AZ,2026-06-25T20:28:19.772832,15.27577614,.0001233,43.0053,103.1969,271.2611,88.8100,0,U,55616,999,18558,.51883E-4,.1166E-4,0
STARLINK-5721,2023-020BA,2026-06-25T20:19:06.083616,15.27557417,.0001484,43.0091,103.1486,287.5372,72.5318,0,U,55617,999,18558,.13024E-3,.3321E-4,0
STARLINK-5717,2023-020BB,2026-06-25T20:33:52.568352,15.27589545,.0001454,43.0033,103.2233,254.9411,105.1280,0,U,55618,999,18558,-.18878E-4,-.782E-5,0
STARLINK-5720,2023-020BC,2026-06-25T20:39:25.947072,15.27577256,.00016,43.0045,103.2482,274.6616,85.4053,0,U,55619,999,18557,.12308E-4,.76E-6,0
STARLINK-5718,2023-020BD,2026-06-25T20:44:58.949952,15.27577416,.0001651,43.0053,103.2795,268.2968,91.7695,0,U,55620,999,18558,.12325E-4,.77E-6,0
STARLINK-5709,2023-020BE,2026-06-25T20:22:46.809696,15.27576939,.0001496,43.0055,103.1671,279.6080,80.4602,0,U,55621,999,18558,.1333E-4,.105E-5,0
STARLINK-5702,2023-020BF,2026-06-25T20:50:32.541216,15.27576783,.000142,43.0045,103.3073,266.5403,93.5286,0,U,55622,999,18558,.12235E-4,.74E-6,0
STARLINK-5698,2023-020BG,2026-06-25T19:20:04.381728,15.27581669,.0001719,43.0031,103.6945,265.4239,94.6417,0,U,55623,999,899,.79065E-5,-.45E-6,0
STARLINK-5484,2023-021A,2026-06-25T18:11:02.508288,14.98336096,.0003334,69.9992,292.0621,269.3001,90.7776,0,U,55628,999,18448,.20117E-4,.147E-5,0
STARLINK-5497,2023-021B,2026-06-25T18:17:03.126336,14.98333701,.0003966,69.9976,292.0760,276.7285,83.3422,0,U,55629,999,18448,.3511E-5,-.51E-6,0
STARLINK-5303,2023-021C,2026-06-25T18:05:01.993920,14.98334446,.0002999,69.9995,292.0465,270.5552,89.5264,0,U,55630,999,18448,.66685E-4,.703E-5,0
STARLINK-5558,2023-021D,2026-06-25T15:52:50.122272,14.98333231,.0003138,70.0002,292.1268,269.2954,90.7846,0,U,55631,999,18447,.40475E-4,.39E-5,0
STARLINK-5546,2023-021E,2026-06-25T16:16:54.208416,14.98328522,.0003145,70.0000,292.1854,268.8357,91.2441,0,U,55632,999,18447,.28585E-4,.248E-5,0
STARLINK-5498,2023-021F,2026-06-25T16:10:52.086144,14.98332637,.0003495,69.9993,292.1695,268.8577,91.2181,0,U,55633,999,18447,.37396E-4,.353E-5,0
STARLINK-5500,2023-021G,2026-06-25T16:17:07.041408,14.98333368,.0003217,69.9994,292.1852,270.5672,89.5119,0,U,55634,999,18446,.85354E-4,.926E-5,0
STARLINK-5495,2023-021H,2026-06-25T15:46:30.046080,14.98334671,.0003323,69.9991,272.2419,270.2756,89.8022,0,U,55635,999,18496,.5848E-4,.605E-5,0
STARLINK-5218,2023-021J,2026-06-25T17:34:58.901088,14.98331637,.0003158,70.0000,291.9732,268.8712,91.2086,0,U,55636,999,18448,.20987E-4,.157E-5,0
STARLINK-5062,2023-021K,2026-06-25T16:10:32.712672,14.98332991,.0003418,69.9992,272.2985,269.0811,90.9957,0,U,55637,999,18496,.42723E-4,.417E-5,0
STARLINK-5507,2023-021L,2026-06-25T16:04:51.460320,14.98334238,.0003173,69.9995,292.1557,266.5191,93.5605,0,U,55638,999,18447,.63496E-4,.665E-5,0
STARLINK-5508,2023-021M,2026-06-25T15:40:44.981760,14.98321074,.0003394,69.9985,272.2245,257.9356,102.1423,0,U,55639,999,18496,.17091E-3,.1946E-4,0
